{"type": "FeatureCollection", "features": [ {"type": "Feature", "properties": {"norad_id": 28659, "name": "DIRECTV 8", "group": "intelsat", "lat": 0.006307856135199544, "lon": -162.60623287141965, "alt_km": 35785.294679719475, "timestamp": "2025-12-25T14:48:24.468980+00:00", "meta": {"OBJECT_NAME": "DIRECTV 8", "OBJECT_ID": "2005-019A", "EPOCH": "2025-12-25T06:10:38.820000", "MEAN_MOTION": 1.00271725, "ECCENTRICITY": 0.00030486, "INCLINATION": 0.0176, "RA_OF_ASC_NODE": 35.883, "ARG_OF_PERICENTER": 248.0851, "MEAN_ANOMALY": 143.6728, "EPHEMERIS_TYPE": 0, "CLASSIFICATION_TYPE": "U", "NORAD_CAT_ID": 28659, "ELEMENT_SET_NO": 999, "REV_AT_EPOCH": 7532, "BSTAR": 0, "MEAN_MOTION_DOT": 2.2e-07, "MEAN_MOTION_DDOT": 0}, "tle": {"line1": "1 28659U 05019A   25359.25739375  .00000022  00000+0  00000+0 0  9992", "line2": "2 28659   0.0176  35.8830 0003048 248.0851 143.6728  1.00271725 75329"}}, "geometry": {"type": "Point", "coordinates": [-162.60623287141965, 0.006307856135199544]}}, {"type": "Feature", "properties": {"norad_id": 28702, "name": "GALAXY 28 (G-28)", "group": "intelsat", "lat": 1.2697827022260206, "lon": -125.5400465254198, "alt_km": 35679.44133207414, "timestamp": "2025-12-25T14:48:24.468991+00:00", "meta": {"OBJECT_NAME": "GALAXY 28 (G-28)", "OBJECT_ID": "2005-022A", "EPOCH": "2025-12-25T06:15:34.001280", "MEAN_MOTION": 1.00599998, "ECCENTRICITY": 0.00035237, "INCLINATION": 2.8519, "RA_OF_ASC_NODE": 81.1358, "ARG_OF_PERICENTER": 159.6201, "MEAN_ANOMALY": 224.7014, "EPHEMERIS_TYPE": 0, "CLASSIFICATION_TYPE": "U", "NORAD_CAT_ID": 28702, "ELEMENT_SET_NO": 999, "REV_AT_EPOCH": 5023, "BSTAR": 0, "MEAN_MOTION_DOT": -2.29e-06, "MEAN_MOTION_DDOT": 0}, "tle": {"line1": "1 28702U 05022A   25359.26081020 -.00000229  00000+0  00000+0 0  9993", "line2": "2 28702   2.8519  81.1358 0003523 159.6201 224.7014  1.00599998 50239"}}, "geometry": {"type": "Point", "coordinates": [-125.5400465254198, 1.2697827022260206]}}, {"type": "Feature", "properties": {"norad_id": 29236, "name": "GALAXY 16 (G-16)", "group": "intelsat", "lat": -0.0033378371826936646, "lon": -142.5651252931957, "alt_km": 35780.46306334513, "timestamp": "2025-12-25T14:48:24.469001+00:00", "meta": {"OBJECT_NAME": "GALAXY 16 (G-16)", "OBJECT_ID": "2006-023A", "EPOCH": "2025-12-24T22:53:59.758368", "MEAN_MOTION": 1.00271582, "ECCENTRICITY": 0.0002662, "INCLINATION": 0.0298, "RA_OF_ASC_NODE": 185.906, "ARG_OF_PERICENTER": 91.2013, "MEAN_ANOMALY": 61.1049, "EPHEMERIS_TYPE": 0, "CLASSIFICATION_TYPE": "U", "NORAD_CAT_ID": 29236, "ELEMENT_SET_NO": 999, "REV_AT_EPOCH": 7122, "BSTAR": 0, "MEAN_MOTION_DOT": -1.06e-06, "MEAN_MOTION_DDOT": 0}, "tle": {"line1": "1 29236U 06023A   25358.95416387 -.00000106  00000+0  00000+0 0  9995", "line2": "2 29236   0.0298 185.9060 0002662  91.2013  61.1049  1.00271582 71223"}}, "geometry": {"type": "Point", "coordinates": [-142.5651252931957, -0.0033378371826936646]}}, {"type": "Feature", "properties": {"norad_id": 29494, "name": "DIRECTV 9S", "group": "intelsat", "lat": 1.454715670171641, "lon": -144.7452413801282, "alt_km": 35780.33126600864, "timestamp": "2025-12-25T14:48:24.469013+00:00", "meta": {"OBJECT_NAME": "DIRECTV 9S", "OBJECT_ID": "2006-043A", "EPOCH": "2025-12-25T06:13:14.477376", "MEAN_MOTION": 1.00271728, "ECCENTRICITY": 0.00030064, "INCLINATION": 1.9706, "RA_OF_ASC_NODE": 83.0792, "ARG_OF_PERICENTER": 196.1619, "MEAN_ANOMALY": 166.8879, "EPHEMERIS_TYPE": 0, "CLASSIFICATION_TYPE": "U", "NORAD_CAT_ID": 29494, "ELEMENT_SET_NO": 999, "REV_AT_EPOCH": 4964, "BSTAR": 0, "MEAN_MOTION_DOT": -9.3e-07, "MEAN_MOTION_DDOT": 0}, "tle": {"line1": "1 29494U 06043A   25359.25919534 -.00000093  00000+0  00000+0 0  9994", "line2": "2 29494   1.9706  83.0792 0003006 196.1619 166.8879  1.00271728 49640"}}, "geometry": {"type": "Point", "coordinates": [-144.7452413801282, 1.454715670171641]}}, {"type": "Feature", "properties": {"norad_id": 31307, "name": "GALAXY 17 (G-17)", "group": "intelsat", "lat": 1.2797624212015881, "lon": -128.51809883815093, "alt_km": 35764.247575963906, "timestamp": "2025-12-25T14:48:24.469024+00:00", "meta": {"OBJECT_NAME": "GALAXY 17 (G-17)", "OBJECT_ID": "2007-016B", "EPOCH": "2025-12-25T03:12:43.293888", "MEAN_MOTION": 1.00272001, "ECCENTRICITY": 0.00055995, "INCLINATION": 2.5292, "RA_OF_ASC_NODE": 82.144, "ARG_OF_PERICENTER": 173.1057, "MEAN_ANOMALY": 161.8394, "EPHEMERIS_TYPE": 0, "CLASSIFICATION_TYPE": "U", "NORAD_CAT_ID": 31307, "ELEMENT_SET_NO": 999, "REV_AT_EPOCH": 6805, "BSTAR": 0, "MEAN_MOTION_DOT": -1.86e-06, "MEAN_MOTION_DDOT": 0}, "tle": {"line1": "1 31307U 07016B   25359.13383442 -.00000186  00000+0  00000+0 0  9994", "line2": "2 31307   2.5292  82.1440 0005599 173.1057 161.8394  1.00272001 68051"}}, "geometry": {"type": "Point", "coordinates": [-128.51809883815093, 1.2797624212015881]}}, {"type": "Feature", "properties": {"norad_id": 31862, "name": "DIRECTV 10", "group": "intelsat", "lat": -0.00014823206399667616, "lon": -146.31444230751092, "alt_km": 35784.520921985226, "timestamp": "2025-12-25T14:48:24.469034+00:00", "meta": {"OBJECT_NAME": "DIRECTV 10", "OBJECT_ID": "2007-032A", "EPOCH": "2025-12-24T14:19:19.046208", "MEAN_MOTION": 1.00273609, "ECCENTRICITY": 2.725e-05, "INCLINATION": 0.0207, "RA_OF_ASC_NODE": 182.1136, "ARG_OF_PERICENTER": 53.7746, "MEAN_ANOMALY": 329.5202, "EPHEMERIS_TYPE": 0, "CLASSIFICATION_TYPE": "U", "NORAD_CAT_ID": 31862, "ELEMENT_SET_NO": 999, "REV_AT_EPOCH": 4384, "BSTAR": 0, "MEAN_MOTION_DOT": -8.2e-07, "MEAN_MOTION_DDOT": 0}, "tle": {"line1": "1 31862U 07032A   25358.59674822 -.00000082  00000+0  00000+0 0  9997", "line2": "2 31862   0.0207 182.1136 0000272  53.7746 329.5202  1.00273609 43846"}}, "geometry": {"type": "Point", "coordinates": [-146.31444230751092, -0.00014823206399667616]}}, {"type": "Feature", "properties": {"norad_id": 32253, "name": "INTELSAT 11 (IS-11)", "group": "intelsat", "lat": 2.205901350924656, "lon": 125.44922847267554, "alt_km": 36152.74757315563, "timestamp": "2025-12-25T14:48:24.469045+00:00", "meta": {"OBJECT_NAME": "INTELSAT 11 (IS-11)", "OBJECT_ID": "2007-044B", "EPOCH": "2025-12-24T20:46:04.510272", "MEAN_MOTION": 0.99053047, "ECCENTRICITY": 0.0008602, "INCLINATION": 3.1098, "RA_OF_ASC_NODE": 80.8414, "ARG_OF_PERICENTER": 171.0045, "MEAN_ANOMALY": 325.7039, "EPHEMERIS_TYPE": 0, "CLASSIFICATION_TYPE": "U", "NORAD_CAT_ID": 32253, "ELEMENT_SET_NO": 999, "REV_AT_EPOCH": 6672, "BSTAR": 0, "MEAN_MOTION_DOT": -1.82e-06, "MEAN_MOTION_DDOT": 0}, "tle": {"line1": "1 32253U 07044B   25358.86532998 -.00000182  00000+0  00000+0 0  9993", "line2": "2 32253   3.1098  80.8414 0008602 171.0045 325.7039  0.99053047 66724"}}, "geometry": {"type": "Point", "coordinates": [125.44922847267554, 2.205901350924656]}}, {"type": "Feature", "properties": {"norad_id": 32388, "name": "HORIZONS-2", "group": "intelsat", "lat": 0.728380826497692, "lon": -117.35023252777626, "alt_km": 35770.475032588125, "timestamp": "2025-12-25T14:48:24.469056+00:00", "meta": {"OBJECT_NAME": "HORIZONS-2", "OBJECT_ID": "2007-063B", "EPOCH": "2025-12-25T04:30:58.751136", "MEAN_MOTION": 1.00269574, "ECCENTRICITY": 0.00047751, "INCLINATION": 2.152, "RA_OF_ASC_NODE": 82.826, "ARG_OF_PERICENTER": 196.7132, "MEAN_ANOMALY": 168.3583, "EPHEMERIS_TYPE": 0, "CLASSIFICATION_TYPE": "U", "NORAD_CAT_ID": 32388, "ELEMENT_SET_NO": 999, "REV_AT_EPOCH": 6607, "BSTAR": 0, "MEAN_MOTION_DOT": -2.33e-06, "MEAN_MOTION_DDOT": 0}, "tle": {"line1": "1 32388U 07063B   25359.18817999 -.00000233  00000+0  00000+0 0  9993", "line2": "2 32388   2.1520  82.8260 0004775 196.7132 168.3583  1.00269574 66071"}}, "geometry": {"type": "Point", "coordinates": [-117.35023252777626, 0.728380826497692]}}, {"type": "Feature", "properties": {"norad_id": 32729, "name": "DIRECTV 11", "group": "intelsat", "lat": -0.003002475247189052, "lon": -142.75684120735073, "alt_km": 35784.89903647278, "timestamp": "2025-12-25T14:48:24.469067+00:00", "meta": {"OBJECT_NAME": "DIRECTV 11", "OBJECT_ID": "2008-013A", "EPOCH": "2025-12-24T22:53:59.758368", "MEAN_MOTION": 1.00260442, "ECCENTRICITY": 0.0001047, "INCLINATION": 0.0475, "RA_OF_ASC_NODE": 199.7105, "ARG_OF_PERICENTER": 11.4593, "MEAN_ANOMALY": 126.8496, "EPHEMERIS_TYPE": 0, "CLASSIFICATION_TYPE": "U", "NORAD_CAT_ID": 32729, "ELEMENT_SET_NO": 999, "REV_AT_EPOCH": 4384, "BSTAR": 0, "MEAN_MOTION_DOT": -1.03e-06, "MEAN_MOTION_DDOT": 0}, "tle": {"line1": "1 32729U 08013A   25358.95416387 -.00000103  00000+0  00000+0 0  9994", "line2": "2 32729   0.0475 199.7105 0001047  11.4593 126.8496  1.00260442 43842"}}, "geometry": {"type": "Point", "coordinates": [-142.75684120735073, -0.003002475247189052]}}, {"type": "Feature", "properties": {"norad_id": 32951, "name": "GALAXY 18 (G-18)", "group": "intelsat", "lat": -0.015714180060253456, "lon": -166.57103179213487, "alt_km": 35785.17829792716, "timestamp": "2025-12-25T14:48:24.469077+00:00", "meta": {"OBJECT_NAME": "GALAXY 18 (G-18)", "OBJECT_ID": "2008-024A", "EPOCH": "2025-12-25T06:10:38.820000", "MEAN_MOTION": 1.00272095, "ECCENTRICITY": 0.00030417, "INCLINATION": 0.0175, "RA_OF_ASC_NODE": 323.8914, "ARG_OF_PERICENTER": 316.0231, "MEAN_ANOMALY": 143.7611, "EPHEMERIS_TYPE": 0, "CLASSIFICATION_TYPE": "U", "NORAD_CAT_ID": 32951, "ELEMENT_SET_NO": 999, "REV_AT_EPOCH": 4410, "BSTAR": 0, "MEAN_MOTION_DOT": 4.6e-07, "MEAN_MOTION_DDOT": 0}, "tle": {"line1": "1 32951U 08024A   25359.25739375  .00000046  00000+0  00000+0 0  9997", "line2": "2 32951   0.0175 323.8914 0003041 316.0231 143.7611  1.00272095 44107"}}, "geometry": {"type": "Point", "coordinates": [-166.57103179213487, -0.015714180060253456]}}]}